{"type": "FeatureCollection", "features": [ {"type": "Feature", "properties": {"norad_id": 31152, "name": "FENGYUN 1C DEB", "group": "fengyun-1c-debris", "lat": -9.28816445888315, "lon": -29.458527270202783, "alt_km": 722.4484225574815, "timestamp": "2025-12-08T10:52:03.228250+00:00", "meta": {"OBJECT_NAME": "FENGYUN 1C DEB", "OBJECT_ID": "1999-025BHE", "EPOCH": "2025-12-07T10:31:25.986144", "MEAN_MOTION": 14.35842539, "ECCENTRICITY": 0.01304209, "INCLINATION": 98.4137, "RA_OF_ASC_NODE": 328.1644, "ARG_OF_PERICENTER": 49.0726, "MEAN_ANOMALY": 102.8481, "EPHEMERIS_TYPE": 0, "CLASSIFICATION_TYPE": "U", "NORAD_CAT_ID": 31152, "ELEMENT_SET_NO": 999, "REV_AT_EPOCH": 97972, "BSTAR": 0.00020354069, "MEAN_MOTION_DOT": 6.04e-06, "MEAN_MOTION_DDOT": 0}, "tle": {"line1": "1 31152U 99025BHE 25341.43849521  .00000604  00000+0  20354-3 0  9994", "line2": "2 31152  98.4137 328.1644 0130420  49.0726 102.8481 14.35842539979724"}}, "geometry": {"type": "Point", "coordinates": [-29.458527270202783, -9.28816445888315]}}, {"type": "Feature", "properties": {"norad_id": 31155, "name": "FENGYUN 1C DEB", "group": "fengyun-1c-debris", "lat": -35.36167136068748, "lon": 57.85964701260565, "alt_km": 830.3918638905534, "timestamp": "2025-12-08T10:52:03.228260+00:00", "meta": {"OBJECT_NAME": "FENGYUN 1C DEB", "OBJECT_ID": "1999-025BHH", "EPOCH": "2025-12-05T21:39:03.400416", "MEAN_MOTION": 14.08284808, "ECCENTRICITY": 0.00890747, "INCLINATION": 99.0425, "RA_OF_ASC_NODE": 48.8151, "ARG_OF_PERICENTER": 22.3069, "MEAN_ANOMALY": 338.1937, "EPHEMERIS_TYPE": 0, "CLASSIFICATION_TYPE": "U", "NORAD_CAT_ID": 31155, "ELEMENT_SET_NO": 999, "REV_AT_EPOCH": 95491, "BSTAR": 0.0020315981, "MEAN_MOTION_DOT": 3.558e-05, "MEAN_MOTION_DDOT": 0}, "tle": {"line1": "1 31155U 99025BHH 25339.90212269  .00003558  00000+0  20316-2 0  9997", "line2": "2 31155  99.0425  48.8151 0089074  22.3069 338.1937 14.08284808954918"}}, "geometry": {"type": "Point", "coordinates": [57.85964701260565, -35.36167136068748]}}, {"type": "Feature", "properties": {"norad_id": 31157, "name": "FENGYUN 1C DEB", "group": "fengyun-1c-debris", "lat": 46.26013437351593, "lon": -42.83875272009152, "alt_km": 784.8272114576739, "timestamp": "2025-12-08T10:52:03.228270+00:00", "meta": {"OBJECT_NAME": "FENGYUN 1C DEB", "OBJECT_ID": "1999-025BHK", "EPOCH": "2025-12-07T04:15:57.074688", "MEAN_MOTION": 14.22549105, "ECCENTRICITY": 0.0100449, "INCLINATION": 98.4774, "RA_OF_ASC_NODE": 324.9006, "ARG_OF_PERICENTER": 342.8267, "MEAN_ANOMALY": 16.9521, "EPHEMERIS_TYPE": 0, "CLASSIFICATION_TYPE": "U", "NORAD_CAT_ID": 31157, "ELEMENT_SET_NO": 999, "REV_AT_EPOCH": 96904, "BSTAR": 0.00056222965, "MEAN_MOTION_DOT": 1.279e-05, "MEAN_MOTION_DDOT": 0}, "tle": {"line1": "1 31157U 99025BHK 25341.17774392  .00001279  00000+0  56223-3 0  9996", "line2": "2 31157  98.4774 324.9006 0100449 342.8267  16.9521 14.22549105969047"}}, "geometry": {"type": "Point", "coordinates": [-42.83875272009152, 46.26013437351593]}}, {"type": "Feature", "properties": {"norad_id": 31158, "name": "FENGYUN 1C DEB", "group": "fengyun-1c-debris", "lat": 50.85966950570348, "lon": 50.09677583097805, "alt_km": 742.0601465619675, "timestamp": "2025-12-08T10:52:03.228280+00:00", "meta": {"OBJECT_NAME": "FENGYUN 1C DEB", "OBJECT_ID": "1999-025BHL", "EPOCH": "2025-12-01T22:47:41.317728", "MEAN_MOTION": 14.33065926, "ECCENTRICITY": 0.00482848, "INCLINATION": 98.7835, "RA_OF_ASC_NODE": 54.4553, "ARG_OF_PERICENTER": 67.2099, "MEAN_ANOMALY": 293.4175, "EPHEMERIS_TYPE": 0, "CLASSIFICATION_TYPE": "U", "NORAD_CAT_ID": 31158, "ELEMENT_SET_NO": 999, "REV_AT_EPOCH": 64325, "BSTAR": 0.0019469313, "MEAN_MOTION_DOT": 5.364e-05, "MEAN_MOTION_DDOT": 0}, "tle": {"line1": "1 31158U 99025BHL 25335.94978377  .00005364  00000+0  19469-2 0  9993", "line2": "2 31158  98.7835  54.4553 0048284  67.2099 293.4175 14.33065926643255"}}, "geometry": {"type": "Point", "coordinates": [50.09677583097805, 50.85966950570348]}}, {"type": "Feature", "properties": {"norad_id": 31159, "name": "FENGYUN 1C DEB", "group": "fengyun-1c-debris", "lat": 21.13066499366555, "lon": -61.24130009809637, "alt_km": 375.49180656113185, "timestamp": "2025-12-08T10:52:03.228290+00:00", "meta": {"OBJECT_NAME": "FENGYUN 1C DEB", "OBJECT_ID": "1999-025BHM", "EPOCH": "2025-12-07T03:32:01.799520", "MEAN_MOTION": 15.37177071, "ECCENTRICITY": 0.01157472, "INCLINATION": 97.7995, "RA_OF_ASC_NODE": 300.4097, "ARG_OF_PERICENTER": 33.2484, "MEAN_ANOMALY": 327.5962, "EPHEMERIS_TYPE": 0, "CLASSIFICATION_TYPE": "U", "NORAD_CAT_ID": 31159, "ELEMENT_SET_NO": 999, "REV_AT_EPOCH": 99467, "BSTAR": 0.0020820653, "MEAN_MOTION_DOT": 0.00096035, "MEAN_MOTION_DDOT": 0}, "tle": {"line1": "1 31159U 99025BHM 25341.14724305  .00096035  00000+0  20821-2 0  9992", "line2": "2 31159  97.7995 300.4097 0115747  33.2484 327.5962 15.37177071994677"}}, "geometry": {"type": "Point", "coordinates": [-61.24130009809637, 21.13066499366555]}}, {"type": "Feature", "properties": {"norad_id": 31160, "name": "FENGYUN 1C DEB", "group": "fengyun-1c-debris", "lat": -45.3956068692108, "lon": 48.10420455297822, "alt_km": 873.1058161411011, "timestamp": "2025-12-08T10:52:03.228300+00:00", "meta": {"OBJECT_NAME": "FENGYUN 1C DEB", "OBJECT_ID": "1999-025BHN", "EPOCH": "2025-12-07T14:29:52.924992", "MEAN_MOTION": 13.99590839, "ECCENTRICITY": 0.00565549, "INCLINATION": 99.087, "RA_OF_ASC_NODE": 37.9235, "ARG_OF_PERICENTER": 270.4305, "MEAN_ANOMALY": 89.0379, "EPHEMERIS_TYPE": 0, "CLASSIFICATION_TYPE": "U", "NORAD_CAT_ID": 31160, "ELEMENT_SET_NO": 999, "REV_AT_EPOCH": 69527, "BSTAR": 0.00022797743, "MEAN_MOTION_DOT": 2.93e-06, "MEAN_MOTION_DDOT": 0}, "tle": {"line1": "1 31160U 99025BHN 25341.60408478  .00000293  00000+0  22798-3 0  9992", "line2": "2 31160  99.0870  37.9235 0056554 270.4305  89.0379 13.99590839695272"}}, "geometry": {"type": "Point", "coordinates": [48.10420455297822, -45.3956068692108]}}, {"type": "Feature", "properties": {"norad_id": 31161, "name": "FENGYUN 1C DEB", "group": "fengyun-1c-debris", "lat": -28.798084335598837, "lon": 179.3037554279139, "alt_km": 912.0538524240719, "timestamp": "2025-12-08T10:52:03.228311+00:00", "meta": {"OBJECT_NAME": "FENGYUN 1C DEB", "OBJECT_ID": "1999-025BHP", "EPOCH": "2025-12-06T20:23:22.110144", "MEAN_MOTION": 14.09240264, "ECCENTRICITY": 0.0068586, "INCLINATION": 98.7491, "RA_OF_ASC_NODE": 2.6028, "ARG_OF_PERICENTER": 6.8769, "MEAN_ANOMALY": 353.3326, "EPHEMERIS_TYPE": 0, "CLASSIFICATION_TYPE": "U", "NORAD_CAT_ID": 31161, "ELEMENT_SET_NO": 999, "REV_AT_EPOCH": 96019, "BSTAR": 0.00060286597, "MEAN_MOTION_DOT": 1.029e-05, "MEAN_MOTION_DDOT": 0}, "tle": {"line1": "1 31161U 99025BHP 25340.84956146  .00001029  00000+0  60287-3 0  9991", "line2": "2 31161  98.7491   2.6028 0068586   6.8769 353.3326 14.09240264960191"}}, "geometry": {"type": "Point", "coordinates": [179.3037554279139, -28.798084335598837]}}, {"type": "Feature", "properties": {"norad_id": 31165, "name": "FENGYUN 1C DEB", "group": "fengyun-1c-debris", "lat": -74.1658330967428, "lon": 75.33367595390989, "alt_km": 625.2550852014074, "timestamp": "2025-12-08T10:52:03.228321+00:00", "meta": {"OBJECT_NAME": "FENGYUN 1C DEB", "OBJECT_ID": "1999-025BHT", "EPOCH": "2025-12-07T10:47:35.534976", "MEAN_MOTION": 14.70926671, "ECCENTRICITY": 0.00692285, "INCLINATION": 98.8855, "RA_OF_ASC_NODE": 40.764, "ARG_OF_PERICENTER": 251.4091, "MEAN_ANOMALY": 122.6564, "EPHEMERIS_TYPE": 0, "CLASSIFICATION_TYPE": "U", "NORAD_CAT_ID": 31165, "ELEMENT_SET_NO": 999, "REV_AT_EPOCH": 98677, "BSTAR": 0.0020209824, "MEAN_MOTION_DOT": 0.00012806, "MEAN_MOTION_DDOT": 0}, "tle": {"line1": "1 31165U 99025BHT 25341.44971684  .00012806  00000+0  20210-2 0  9992", "line2": "2 31165  98.8855  40.7640 0069228 251.4091 122.6564 14.70926671986777"}}, "geometry": {"type": "Point", "coordinates": [75.33367595390989, -74.1658330967428]}}, {"type": "Feature", "properties": {"norad_id": 31168, "name": "FENGYUN 1C DEB", "group": "fengyun-1c-debris", "lat": -63.857679080720956, "lon": -85.26163939057152, "alt_km": 752.0382851391505, "timestamp": "2025-12-08T10:52:03.228332+00:00", "meta": {"OBJECT_NAME": "FENGYUN 1C DEB", "OBJECT_ID": "1999-025BHW", "EPOCH": "2025-12-07T14:07:13.067616", "MEAN_MOTION": 14.67283945, "ECCENTRICITY": 0.01088741, "INCLINATION": 98.8911, "RA_OF_ASC_NODE": 112.4, "ARG_OF_PERICENTER": 79.4903, "MEAN_ANOMALY": 281.8544, "EPHEMERIS_TYPE": 0, "CLASSIFICATION_TYPE": "U", "NORAD_CAT_ID": 31168, "ELEMENT_SET_NO": 999, "REV_AT_EPOCH": 99045, "BSTAR": 0.0012286131, "MEAN_MOTION_DOT": 7.519e-05, "MEAN_MOTION_DDOT": 0}, "tle": {"line1": "1 31168U 99025BHW 25341.58834569  .00007519  00000+0  12286-2 0  9999", "line2": "2 31168  98.8911 112.4000 0108874  79.4903 281.8544 14.67283945990453"}}, "geometry": {"type": "Point", "coordinates": [-85.26163939057152, -63.857679080720956]}}, {"type": "Feature", "properties": {"norad_id": 31169, "name": "FENGYUN 1C DEB", "group": "fengyun-1c-debris", "lat": 13.226492423422977, "lon": 6.516956988504284, "alt_km": 765.12695159137, "timestamp": "2025-12-08T10:52:03.228342+00:00", "meta": {"OBJECT_NAME": "FENGYUN 1C DEB", "OBJECT_ID": "1999-025BHX", "EPOCH": "2025-12-07T14:36:12.590784", "MEAN_MOTION": 14.26378053, "ECCENTRICITY": 0.00576294, "INCLINATION": 99.1571, "RA_OF_ASC_NODE": 7.8072, "ARG_OF_PERICENTER": 32.3449, "MEAN_ANOMALY": 328.1242, "EPHEMERIS_TYPE": 0, "CLASSIFICATION_TYPE": "U", "NORAD_CAT_ID": 31169, "ELEMENT_SET_NO": 999, "REV_AT_EPOCH": 57031, "BSTAR": 0.0034039126, "MEAN_MOTION_DOT": 8.288e-05, "MEAN_MOTION_DDOT": 0}, "tle": {"line1": "1 31169U 99025BHX 25341.60847906  .00008288  00000+0  34039-2 0  9996", "line2": "2 31169  99.1571   7.8072 0057629  32.3449 328.1242 14.26378053570319"}}, "geometry": {"type": "Point", "coordinates": [6.516956988504284, 13.226492423422977]}}]}